{"updated_at":"2026-06-13T08:20:15.482518Z","count":200,"data":[{"NORAD_CAT_ID":"69255","OBJECT_NAME":"STARLINK-37378","OBJECT_ID":"2026-117T","EPOCH":"2026-06-12T20:00:01.999008","TLE_LINE1":"1 69255U 26117T   26163.83335647 -.00090676  00000-0 -43741-3 0  9993","TLE_LINE2":"2 69255  53.1584 265.0575 0000989  91.6584 168.8719 15.81986989  3461"},{"NORAD_CAT_ID":"69256","OBJECT_NAME":"STARLINK-37396","OBJECT_ID":"2026-117U","EPOCH":"2026-06-12T20:00:01.999008","TLE_LINE1":"1 69256U 26117U   26163.83335647 -.00055282  00000-0 -26448-3 0  9993","TLE_LINE2":"2 69256  53.1579 265.0274 0000912  93.0824 181.4228 15.81968715  3543"},{"NORAD_CAT_ID":"69250","OBJECT_NAME":"STARLINK-37499","OBJECT_ID":"2026-177N","EPOCH":"2026-06-12T20:00:01.999008","TLE_LINE1":"1 69250U 26117N   26163.83335647 -.00089141  00000-0 -42955-3 0  9999","TLE_LINE2":"2 69250  53.1585 265.2128 0001029 107.3188  78.4057 15.82003147  3541"},{"NORAD_CAT_ID":"69251","OBJECT_NAME":"STARLINK-37489","OBJECT_ID":"2026-117P","EPOCH":"2026-06-12T20:00:01.999008","TLE_LINE1":"1 69251U 26117P   26163.83335647 -.00008957  00000-0 -39786-4 0  9995","TLE_LINE2":"2 69251  53.1588 265.1921 0000771  79.0278 116.7437 15.81952655  3547"},{"NORAD_CAT_ID":"69252","OBJECT_NAME":"STARLINK-37434","OBJECT_ID":"2026-117Q","EPOCH":"2026-06-12T20:00:01.999008","TLE_LINE1":"1 69252U 26117Q   26163.83335647 -.00009963  00000-0 -44647-4 0  9996","TLE_LINE2":"2 69252  53.1585 265.1565 0001107  58.5220 154.1858 15.81947870  3470"},{"NORAD_CAT_ID":"69253","OBJECT_NAME":"STARLINK-37368","OBJECT_ID":"2026-117R","EPOCH":"2026-06-12T20:00:01.999008","TLE_LINE1":"1 69253U 26117R   26163.83335647  .00019050  00000-0  95012-4 0  9995","TLE_LINE2":"2 69253  53.1585 265.0770 0000892  70.3589 180.7631 15.81956282  3547"},{"NORAD_CAT_ID":"69257","OBJECT_NAME":"STARLINK-37508","OBJECT_ID":"2026-117V","EPOCH":"2026-06-12T20:00:01.999008","TLE_LINE1":"1 69257U 26117V   26163.83335647 -.00108014  00000-0 -54999-3 0  9998","TLE_LINE2":"2 69257  53.1584 265.0161 0001044  88.7378 191.0013 15.80895318  3464"},{"NORAD_CAT_ID":"69258","OBJECT_NAME":"STARLINK-37276","OBJECT_ID":"2026-117W","EPOCH":"2026-06-12T20:00:01.999008","TLE_LINE1":"1 69258U 26117W   26163.83335647 -.00477297  00000-0 -25160-2 0  9998","TLE_LINE2":"2 69258  53.1576 264.6973 0001211  39.8084  33.2185 15.81166743  3460"},{"NORAD_CAT_ID":"69259","OBJECT_NAME":"STARLINK-37518","OBJECT_ID":"2026-117X","EPOCH":"2026-06-12T20:00:01.999008","TLE_LINE1":"1 69259U 26117X   26163.83335647  .00000768  00000-0  74288-5 0  9990","TLE_LINE2":"2 69259  53.1585 264.7126 0001322  80.1385 345.9957 15.80889335  3477"},{"NORAD_CAT_ID":"69260","OBJECT_NAME":"STARLINK-37478","OBJECT_ID":"2026-117Y","EPOCH":"2026-06-12T20:00:01.999008","TLE_LINE1":"1 69260U 26117Y   26163.83335647  .00080460  00000-0  40836-3 0  9999","TLE_LINE2":"2 69260  53.1585 264.7149 0001193  67.9023 357.0069 15.80821631  3475"},{"NORAD_CAT_ID":"69261","OBJECT_NAME":"STARLINK-37506","OBJECT_ID":"2026-117Z","EPOCH":"2026-06-12T20:00:01.999008","TLE_LINE1":"1 69261U 26117Z   26163.83335647  .00124425  00000-0  62699-3 0  9991","TLE_LINE2":"2 69261  53.1582 264.7088 0001058  73.1940 354.5095 15.80799844  3473"},{"NORAD_CAT_ID":"69262","OBJECT_NAME":"STARLINK-37503","OBJECT_ID":"2026-117AA","EPOCH":"2026-06-12T20:00:01.999008","TLE_LINE1":"1 69262U 26117AA  26163.83335647  .00113935  00000-0  57510-3 0  9992","TLE_LINE2":"2 69262  53.1587 264.7053 0001123  83.0443 346.1163 15.80800989  3478"},{"NORAD_CAT_ID":"69263","OBJECT_NAME":"STARLINK-37502","OBJECT_ID":"2026-117AB","EPOCH":"2026-06-12T20:00:01.999008","TLE_LINE1":"1 69263U 26117AB  26163.83335647  .00093162  00000-0  47147-3 0  9997","TLE_LINE2":"2 69263  53.1587 264.6988 0001289  88.6962 343.3689 15.80826508  3472"},{"NORAD_CAT_ID":"69264","OBJECT_NAME":"STARLINK-37486","OBJECT_ID":"2026-117AC","EPOCH":"2026-06-12T20:00:01.999008","TLE_LINE1":"1 69264U 26117AC  26163.83335647  .00003629  00000-0  21922-4 0  9991","TLE_LINE2":"2 69264  53.1578 264.6844 0001046  80.8675 358.1475 15.80871055  3474"},{"NORAD_CAT_ID":"69265","OBJECT_NAME":"STARLINK-37435","OBJECT_ID":"2026-117AD","EPOCH":"2026-06-12T20:00:01.999008","TLE_LINE1":"1 69265U 26117AD  26163.83335647  .00036537  00000-0  18810-3 0  9997","TLE_LINE2":"2 69265  53.1586 264.7015 0001218  73.8423 356.7088 15.80846198  3473"},{"NORAD_CAT_ID":"69266","OBJECT_NAME":"STARLINK-37464","OBJECT_ID":"2026-117AE","EPOCH":"2026-06-12T20:00:01.999008","TLE_LINE1":"1 69266U 26117AE  26163.83335647 -.00001637  00000-0 -44660-5 0  9997","TLE_LINE2":"2 69266  53.1581 264.6843 0001182  63.3260  15.1498 15.81939847  3476"},{"NORAD_CAT_ID":"69267","OBJECT_NAME":"KUIPER-00282","OBJECT_ID":"2026-118A","EPOCH":"2026-06-12T19:02:58.494912","TLE_LINE1":"1 69267U 26118A   26163.79373258  .00021928  00000-0  64958-3 0  9997","TLE_LINE2":"2 69267  51.8587  74.7274 0011886 164.4279 195.7074 15.34729273  3306"},{"NORAD_CAT_ID":"69268","OBJECT_NAME":"KUIPER-00383","OBJECT_ID":"2026-118B","EPOCH":"2026-06-12T18:58:35.882112","TLE_LINE1":"1 69268U 26118B   26163.79069308  .00027166  00000-0  80147-3 0  9994","TLE_LINE2":"2 69268  51.8593  74.7094 0010818 166.7772 193.3499 15.34742413  3307"},{"NORAD_CAT_ID":"69269","OBJECT_NAME":"KUIPER-00527","OBJECT_ID":"2026-118C","EPOCH":"2026-06-12T18:53:36.012768","TLE_LINE1":"1 69269U 26118C   26163.78722237  .00019846  00000-0  58444-3 0  9992","TLE_LINE2":"2 69269  51.8617  74.6878 0010280 160.2012 199.9375 15.34998123  3309"},{"NORAD_CAT_ID":"69270","OBJECT_NAME":"KUIPER-00562","OBJECT_ID":"2026-118D","EPOCH":"2026-06-12T19:54:17.830656","TLE_LINE1":"1 69270U 26118D   26163.82937304  .00026374  00000-0  69105-3 0  9992","TLE_LINE2":"2 69270  51.8726  74.2217 0001969  96.7983 263.3229 15.38506759  3318"},{"NORAD_CAT_ID":"69271","OBJECT_NAME":"KUIPER-00570","OBJECT_ID":"2026-118E","EPOCH":"2026-06-12T18:56:44.128032","TLE_LINE1":"1 69271U 26118E   26163.78939963  .00020373  00000-0  59285-3 0  9992","TLE_LINE2":"2 69271  51.8575  74.6998 0011906 169.1207 191.0038 15.35339245  3302"},{"NORAD_CAT_ID":"69272","OBJECT_NAME":"KUIPER-00572","OBJECT_ID":"2026-118F","EPOCH":"2026-06-12T20:15:27.761184","TLE_LINE1":"1 69272U 26118F   26163.84407131  .00012667  00000-0  35561-3 0  9995","TLE_LINE2":"2 69272  51.8672  74.3243 0007298 154.2010 205.9341 15.36894099  3314"},{"NORAD_CAT_ID":"69273","OBJECT_NAME":"KUIPER-00581","OBJECT_ID":"2026-118G","EPOCH":"2026-06-12T18:45:57.966624","TLE_LINE1":"1 69273U 26118G   26163.78192091  .00016602  00000-0  46763-3 0  9994","TLE_LINE2":"2 69273  51.8652  74.6563 0009218 158.9531 201.1836 15.36536688  3396"},{"NORAD_CAT_ID":"69274","OBJECT_NAME":"KUIPER-00584","OBJECT_ID":"2026-118H","EPOCH":"2026-06-12T18:59:40.752960","TLE_LINE1":"1 69274U 26118H   26163.79144390  .00028783  00000-0  83570-3 0  9995","TLE_LINE2":"2 69274  51.8609  74.7151 0011603 173.2062 186.9083 15.35206649  3308"},{"NORAD_CAT_ID":"69275","OBJECT_NAME":"KUIPER-00587","OBJECT_ID":"2026-118J","EPOCH":"2026-06-12T18:45:13.690080","TLE_LINE1":"1 69275U 26118J   26163.78140845  .00021263  00000-0  59488-3 0  9993","TLE_LINE2":"2 69275  51.8627  74.6519 0008417 161.7085 198.4206 15.36576228  3301"},{"NORAD_CAT_ID":"69276","OBJECT_NAME":"KUIPER-00590","OBJECT_ID":"2026-118K","EPOCH":"2026-06-12T20:03:59.135040","TLE_LINE1":"1 69276U 26118K   26163.83610110  .00027122  00000-0  72647-3 0  9999","TLE_LINE2":"2 69276  51.8683  74.2734 0004224 142.5878 217.5404 15.37805942  3311"},{"NORAD_CAT_ID":"69277","OBJECT_NAME":"KUIPER-00592","OBJECT_ID":"2026-118L","EPOCH":"2026-06-12T20:01:11.295264","TLE_LINE1":"1 69277U 26118L   26163.83415851  .00016667  00000-0  44775-3 0  9998","TLE_LINE2":"2 69277  51.8709  74.2588 0003695 122.8900 237.2443 15.38037058  3314"},{"NORAD_CAT_ID":"69278","OBJECT_NAME":"KUIPER-00593","OBJECT_ID":"2026-118M","EPOCH":"2026-06-12T20:01:56.142048","TLE_LINE1":"1 69278U 26118M   26163.83467757  .00026652  00000-0  71092-3 0  9998","TLE_LINE2":"2 69278  51.8714  74.2610 0004169 141.2596 218.8690 15.37943953  3374"},{"NORAD_CAT_ID":"69279","OBJECT_NAME":"KUIPER-00594","OBJECT_ID":"2026-118N","EPOCH":"2026-06-12T19:52:45.467328","TLE_LINE1":"1 69279U 26118N   26163.82830402  .00028553  00000-0  74604-3 0  9993","TLE_LINE2":"2 69279  51.8722  74.2179 0000981  65.9840 294.1250 15.38550170  3315"}]}