OBJECT_NAME,OBJECT_ID,EPOCH,MEAN_MOTION,ECCENTRICITY,INCLINATION,RA_OF_ASC_NODE,ARG_OF_PERICENTER,MEAN_ANOMALY,EPHEMERIS_TYPE,CLASSIFICATION_TYPE,NORAD_CAT_ID,ELEMENT_SET_NO,REV_AT_EPOCH,BSTAR,MEAN_MOTION_DOT,MEAN_MOTION_DDOT
STARLINK-37499,2026-117N,2026-06-12T20:00:01.999008,15.82003147,.0001029,53.1585,265.2128,107.3188,78.4057,0,U,69250,999,354,-.42955E-3,-.89141E-3,0
STARLINK-37489,2026-117P,2026-06-12T20:00:01.999008,15.81952655,.0000771,53.1588,265.1921,79.0278,116.7437,0,U,69251,999,354,-.39786E-4,-.8957E-4,0
STARLINK-37434,2026-117Q,2026-06-12T20:00:01.999008,15.81947870,.0001107,53.1585,265.1565,58.5220,154.1858,0,U,69252,999,347,-.44647E-4,-.9963E-4,0
STARLINK-37368,2026-117R,2026-06-12T20:00:01.999008,15.81956282,.0000892,53.1585,265.0770,70.3589,180.7631,0,U,69253,999,354,.95012E-4,.1905E-3,0
STARLINK-37378,2026-117T,2026-06-12T20:00:01.999008,15.81986989,.0000989,53.1584,265.0575,91.6584,168.8719,0,U,69255,999,346,-.43741E-3,-.90676E-3,0
STARLINK-37396,2026-117U,2026-06-12T20:00:01.999008,15.81968715,.0000912,53.1579,265.0274,93.0824,181.4228,0,U,69256,999,354,-.26448E-3,-.55282E-3,0
STARLINK-37508,2026-117V,2026-06-12T20:00:01.999008,15.80895318,.0001044,53.1584,265.0161,88.7378,191.0013,0,U,69257,999,346,-.54999E-3,-.108014E-2,0
STARLINK-37276,2026-117W,2026-06-12T20:00:01.999008,15.81166743,.0001211,53.1576,264.6973,39.8084,33.2185,0,U,69258,999,346,-.2516E-2,-.477297E-2,0
STARLINK-37518,2026-117X,2026-06-12T20:00:01.999008,15.80889335,.0001322,53.1585,264.7126,80.1385,345.9957,0,U,69259,999,347,.74288E-5,.768E-5,0
STARLINK-37478,2026-117Y,2026-06-12T20:00:01.999008,15.80821631,.0001193,53.1585,264.7149,67.9023,357.0069,0,U,69260,999,347,.40836E-3,.8046E-3,0
STARLINK-37506,2026-117Z,2026-06-12T20:00:01.999008,15.80799844,.0001058,53.1582,264.7088,73.1940,354.5095,0,U,69261,999,347,.62699E-3,.124425E-2,0
STARLINK-37503,2026-117AA,2026-06-12T20:00:01.999008,15.80800989,.0001123,53.1587,264.7053,83.0443,346.1163,0,U,69262,999,347,.5751E-3,.113935E-2,0
STARLINK-37502,2026-117AB,2026-06-12T20:00:01.999008,15.80826508,.0001289,53.1587,264.6988,88.6962,343.3689,0,U,69263,999,347,.47147E-3,.93162E-3,0
STARLINK-37486,2026-117AC,2026-06-12T20:00:01.999008,15.80871055,.0001046,53.1578,264.6844,80.8675,358.1475,0,U,69264,999,347,.21922E-4,.3629E-4,0
STARLINK-37435,2026-117AD,2026-06-12T20:00:01.999008,15.80846198,.0001218,53.1586,264.7015,73.8423,356.7088,0,U,69265,999,347,.1881E-3,.36537E-3,0
STARLINK-37464,2026-117AE,2026-06-12T20:00:01.999008,15.81939847,.0001182,53.1581,264.6843,63.3260,15.1498,0,U,69266,999,347,-.4466E-5,-.1637E-4,0
KUIPER-00282,2026-118A,2026-06-12T19:02:58.494912,15.34729273,.0011886,51.8587,74.7274,164.4279,195.7074,0,U,69267,999,330,.64958E-3,.21928E-3,0
KUIPER-00383,2026-118B,2026-06-12T18:58:35.882112,15.34742413,.0010818,51.8593,74.7094,166.7772,193.3499,0,U,69268,999,330,.80147E-3,.27166E-3,0
KUIPER-00527,2026-118C,2026-06-12T18:53:36.012768,15.34998123,.001028,51.8617,74.6878,160.2012,199.9375,0,U,69269,999,330,.58444E-3,.19846E-3,0
KUIPER-00562,2026-118D,2026-06-12T19:54:17.830656,15.38506759,.0001969,51.8726,74.2217,96.7983,263.3229,0,U,69270,999,331,.69105E-3,.26374E-3,0
KUIPER-00570,2026-118E,2026-06-12T18:56:44.128032,15.35339245,.0011906,51.8575,74.6998,169.1207,191.0038,0,U,69271,999,330,.59285E-3,.20373E-3,0
KUIPER-00572,2026-118F,2026-06-12T20:15:27.761184,15.36894099,.0007298,51.8672,74.3243,154.2010,205.9341,0,U,69272,999,331,.35561E-3,.12667E-3,0
KUIPER-00581,2026-118G,2026-06-12T18:45:57.966624,15.36536688,.0009218,51.8652,74.6563,158.9531,201.1836,0,U,69273,999,339,.46763E-3,.16602E-3,0
KUIPER-00584,2026-118H,2026-06-12T18:59:40.752960,15.35206649,.0011603,51.8609,74.7151,173.2062,186.9083,0,U,69274,999,330,.8357E-3,.28783E-3,0
KUIPER-00587,2026-118J,2026-06-12T18:45:13.690080,15.36576228,.0008417,51.8627,74.6519,161.7085,198.4206,0,U,69275,999,330,.59488E-3,.21263E-3,0
KUIPER-00590,2026-118K,2026-06-12T20:03:59.135040,15.37805942,.0004224,51.8683,74.2734,142.5878,217.5404,0,U,69276,999,331,.72647E-3,.27122E-3,0
KUIPER-00592,2026-118L,2026-06-12T20:01:11.295264,15.38037058,.0003695,51.8709,74.2588,122.8900,237.2443,0,U,69277,999,331,.44775E-3,.16667E-3,0
KUIPER-00593,2026-118M,2026-06-12T20:01:56.142048,15.37943953,.0004169,51.8714,74.2610,141.2596,218.8690,0,U,69278,999,337,.71092E-3,.26652E-3,0
KUIPER-00594,2026-118N,2026-06-12T19:52:45.467328,15.38550170,.0000981,51.8722,74.2179,65.9840,294.1250,0,U,69279,999,331,.74604E-3,.28553E-3,0
